NORAD_CAT_ID,OBJECT_NAME,OBJECT_TYPE,EPOCH,MEAN_MOTION,ECCENTRICITY,INCLINATION,RA_OF_ASC_NODE,ARG_OF_PERICENTER,MEAN_ANOMALY,BSTAR,MEAN_MOTION_DOT,MEAN_MOTION_DDOT,TLE_LINE0,TLE_LINE1,TLE_LINE2,SEMIMAJOR_AXIS,PERIOD,APOGEE,PERIGEE,DECAYED
53967.0,STARLINK-4634,PAYLOAD,2023-06-29 18:33:21,15.08844912,8.79e-05,53.218,321.1305,87.1316,272.9777,0.00012597,1.718e-05,0.0,0 STARLINK-4634,1 53967U 22125D   23180.77316656  .00001718  00000-0  12597-3 0  9991,2 53967  53.2180 321.1305 0000879  87.1316 272.9777 15.08844912 40856,6917.865,95.437,540.338,539.122,0.0
53967.0,STARLINK-4634,PAYLOAD,2023-07-01 18:14:56,15.08840056,9.02e-05,53.2177,312.2072,80.1511,279.9583,3.7536e-06,-2.28e-06,0.0,0 STARLINK-4634,1 53967U 22125D   23182.76037344 -.00000228  00000-0  37536-5 0  9994,2 53967  53.2177 312.2072 0000902  80.1511 279.9583 15.08840056 41152,6917.88,95.438,540.369,539.121,0.0
53967.0,STARLINK-4634,PAYLOAD,2023-07-02 14:54:58,15.08825942,7.9e-05,53.2188,308.3429,71.5163,288.5915,-8.2992e-05,-1.608e-05,0.0,0 STARLINK-4634,1 53967U 22125D   23183.62150743 -.00001608  00000-0 -82992-4 0  9998,2 53967  53.2188 308.3429 0000790  71.5163 288.5915 15.08825942 41284,6917.923,95.438,540.335,539.242,0.0
53967.0,STARLINK-4634,PAYLOAD,2023-07-03 14:45:44,15.08838078,0.0001043,53.2179,303.8829,63.2504,296.8594,0.00013266,1.824e-05,0.0,0 STARLINK-4634,1 53967U 22125D   23184.61509975  .00001824  00000-0  13266-3 0  9998,2 53967  53.2179 303.8829 0001043  63.2504 296.8594 15.08838078 41433,6917.886,95.438,540.473,539.03,0.0
53967.0,STARLINK-4634,PAYLOAD,2023-07-04 14:36:30,15.08846113,0.0001104,53.2175,299.4214,57.7947,302.3152,0.00026489,3.931e-05,0.0,0 STARLINK-4634,1 53967U 22125D   23185.60869146  .00003931  00000-0  26489-3 0  9999,2 53967  53.2175 299.4214 0001104  57.7947 302.3152 15.08846113 41582,6917.862,95.437,540.49,538.963,0.0
53967.0,STARLINK-4634,PAYLOAD,2023-07-05 00:08:51,15.08828118,0.0001083,53.2176,297.6373,59.5918,300.5181,8.2322e-05,1.022e-05,0.0,0 STARLINK-4634,1 53967U 22125D   23186.00614840  .00001022  00000-0  82322-4 0  9991,2 53967  53.2176 297.6373 0001083  59.5918 300.5181 15.08828118 41647,6917.917,95.438,540.531,539.032,0.0
53967.0,STARLINK-4634,PAYLOAD,2023-07-05 14:27:18,15.08848286,0.0001001,53.2171,294.9611,58.3674,301.7415,3.3846e-06,-2.34e-06,0.0,0 STARLINK-4634,1 53967U 22125D   23186.60229280 -.00000234  00000-0  33846-5 0  9990,2 53967  53.2171 294.9611 0001001  58.3674 301.7415 15.08848286 41734,6917.855,95.437,540.413,539.028,0.0
53967.0,STARLINK-4634,PAYLOAD,2023-07-06 06:21:09,15.08840464,9.63e-05,53.2167,291.9871,67.0119,293.0974,-8.09e-05,-1.575e-05,0.0,0 STARLINK-4634,1 53967U 22125D   23187.26469486 -.00001575  00000-0 -80900-4 0  9999,2 53967  53.2167 291.9871 0000963  67.0119 293.0974 15.08840464 41835,6917.879,95.438,540.41,539.078,0.0
53967.0,STARLINK-4634,PAYLOAD,2023-07-06 15:53:27,15.08850982,9.86e-05,53.2168,290.2032,67.7563,292.3533,2.2338e-05,6.8e-07,0.0,0 STARLINK-4634,1 53967U 22125D   23187.66212938  .00000068  00000-0  22338-4 0  9996,2 53967  53.2168 290.2032 0000986  67.7563 292.3533 15.08850982 41897,6917.847,95.437,540.394,539.03,0.0
53967.0,STARLINK-4634,PAYLOAD,2023-07-06 23:50:24,15.08836565,0.0001024,53.2162,288.7154,78.1477,281.963,-5.7161e-05,-1.197e-05,0.0,0 STARLINK-4634,1 53967U 22125D   23187.99333493 -.00001197  00000-0 -57161-4 0  9990,2 53967  53.2162 288.7154 0001024  78.1477 281.9630 15.08836565 41941,6917.891,95.438,540.464,539.047,0.0
53967.0,STARLINK-4634,PAYLOAD,2023-07-07 14:08:52,15.08852128,9.26e-05,53.216,286.0404,74.986,285.1234,0.0004093,6.234e-05,0.0,0 STARLINK-4634,1 53967U 22125D   23188.58949095  .00006234  00000-0  40930-3 0  9997,2 53967  53.2160 286.0404 0000926  74.9860 285.1234 15.08852128 42038,6917.843,95.437,540.349,539.068,0.0
53967.0,STARLINK-4634,PAYLOAD,2023-07-07 23:41:10,15.08849042,7.98e-05,53.2156,284.255,86.9048,273.2035,0.00036498,5.527e-05,0.0,0 STARLINK-4634,1 53967U 22125D   23188.98693072  .00005527  00000-0  36498-3 0  9990,2 53967  53.2156 284.2550 0000798  86.9048 273.2035 15.08849042 42097,6917.853,95.437,540.27,539.166,0.0
53967.0,STARLINK-4634,PAYLOAD,2023-07-08 06:02:43,15.08839522,7.16e-05,53.216,283.0666,76.8482,283.259,5.0213e-05,5.12e-06,0.0,0 STARLINK-4634,1 53967U 22125D   23189.25189218  .00000512  00000-0  50213-4 0  9994,2 53967  53.2160 283.0666 0000716  76.8482 283.2590 15.08839522 42131,6917.882,95.438,540.242,539.252,0.0
53967.0,STARLINK-4634,PAYLOAD,2023-07-08 18:45:48,15.08853268,8.27e-05,53.2149,280.6871,99.2619,260.8467,0.00088398,0.00013814,0.0,0 STARLINK-4634,1 53967U 22125D   23189.78180961  .00013814  00000-0  88398-3 0  9991,2 53967  53.2149 280.6871 0000827  99.2619 260.8467 15.08853268 42219,6917.84,95.437,540.277,539.133,0.0
53967.0,STARLINK-4634,PAYLOAD,2023-07-08 23:31:58,15.0883192,5.55e-05,53.2154,279.7951,93.6802,266.4254,-3.0471e-06,-3.36e-06,0.0,0 STARLINK-4634,1 53967U 22125D   23189.98053334 -.00000336  00000-0 -30471-5 0  9994,2 53967  53.2154 279.7951 0000555  93.6802 266.4254 15.08831920 42243,6917.905,95.438,540.154,539.386,0.0
53967.0,STARLINK-4634,PAYLOAD,2023-07-10 08:55:04,15.08844224,0.0001039,53.2156,273.5505,80.0878,280.0232,0.00036516,5.529e-05,0.0,0 STARLINK-4634,1 53967U 22125D   23191.37157961  .00005529  00000-0  36516-3 0  9992,2 53967  53.2156 273.5505 0001039  80.0878 280.0232 15.08844224 42455,6917.867,95.437,540.451,539.014,0.0
53967.0,STARLINK-4634,PAYLOAD,2023-07-11 05:35:05,15.08844858,0.0001127,53.216,269.684,75.3115,284.8002,0.0002452,3.617e-05,0.0,0 STARLINK-4634,1 53967U 22125D   23192.23269953  .00003617  00000-0  24520-3 0  9991,2 53967  53.2160 269.6840 0001127  75.3115 284.8002 15.08844858 42581,6917.866,95.437,540.51,538.951,0.0
53967.0,STARLINK-4634,PAYLOAD,2023-07-12 16:33:33,15.08846943,0.0001227,53.2176,263.1401,73.7008,286.4119,0.00019284,2.783e-05,0.0,0 STARLINK-4634,1 53967U 22125D   23193.68997618  .00002783  00000-0  19284-3 0  9991,2 53967  53.2176 263.1401 0001227  73.7008 286.4119 15.08846943 42803,6917.859,95.437,540.573,538.875,0.0
53967.0,STARLINK-4634,PAYLOAD,2023-07-13 14:48:58,15.0884075,0.0001036,53.2165,258.9777,83.3616,276.7494,9.0821e-05,1.158e-05,0.0,0 STARLINK-4634,1 53967U 22125D   23194.61733832  .00001158  00000-0  90821-4 0  9993,2 53967  53.2165 258.9777 0001036  83.3616 276.7494 15.08840750 42942,6917.878,95.438,540.46,539.026,0.0
53967.0,STARLINK-4634,PAYLOAD,2023-07-14 09:53:37,15.08801423,0.0001676,53.2169,255.4088,71.9911,288.1264,0.0018979,0.00030014,0.0,0 STARLINK-4634,1 53967U 22125D   23195.41224522  .00030014  00000-0  18979-2 0  9998,2 53967  53.2169 255.4088 0001676  71.9911 288.1264 15.08801423 43064,6917.998,95.44,541.023,538.704,0.0
53967.0,STARLINK-4634,PAYLOAD,2023-07-14 16:15:08,15.0884624,0.0001208,53.2167,254.2192,87.2979,272.8151,0.00026491,3.931e-05,0.0,0 STARLINK-4634,1 53967U 22125D   23195.67718035  .00003931  00000-0  26491-3 0  9990,2 53967  53.2167 254.2192 0001208  87.2979 272.8151 15.08846240 43106,6917.861,95.437,540.562,538.891,0.0
53967.0,STARLINK-4634,PAYLOAD,2023-07-16 03:13:37,15.08827987,0.0001046,53.2152,247.6794,80.1541,279.9569,-0.00017192,-3.022e-05,0.0,0 STARLINK-4634,1 53967U 22125D   23197.13446646 -.00003022  00000-0 -17192-3 0  9990,2 53967  53.2152 247.6794 0001046  80.1541 279.9569 15.08827987 43323,6917.917,95.438,540.506,539.058,0.0
53967.0,STARLINK-4634,PAYLOAD,2023-07-16 20:42:52,15.08833671,0.0001103,53.2148,244.4084,77.4256,282.686,0.00013449,1.853e-05,0.0,0 STARLINK-4634,1 53967U 22125D   23197.86311061  .00001853  00000-0  13449-3 0  9991,2 53967  53.2148 244.4084 0001103  77.4256 282.6860 15.08833671 43435,6917.9,95.438,540.528,539.002,0.0
53967.0,STARLINK-4634,PAYLOAD,2023-07-18 02:55:12,15.08852283,0.0001143,53.214,238.7587,69.8055,290.306,0.00054747,8.439e-05,0.0,0 STARLINK-4634,1 53967U 22125D   23199.12166956  .00008439  00000-0  54747-3 0  9996,2 53967  53.2140 238.7587 0001143  69.8055 290.3060 15.08852283 43626,6917.843,95.437,540.499,538.917,0.0
53967.0,STARLINK-4634,PAYLOAD,2023-07-19 02:45:59,15.08846064,0.0001175,53.2143,234.2975,74.4186,285.6935,0.0001174,1.581e-05,0.0,0 STARLINK-4634,1 53967U 22125D   23200.11526690  .00001581  00000-0  11740-3 0  9990,2 53967  53.2143 234.2975 0001175  74.4186 285.6935 15.08846064 43777,6917.862,95.437,540.54,538.914,0.0
53967.0,STARLINK-4634,PAYLOAD,2023-07-19 07:32:08,15.08836972,0.000119,53.2144,233.4055,72.4478,287.6644,-7.0834e-05,-1.415e-05,0.0,0 STARLINK-4634,1 53967U 22125D   23200.31398961 -.00001415  00000-0 -70834-4 0  9998,2 53967  53.2144 233.4055 0001190  72.4478 287.6644 15.08836972 43807,6917.89,95.438,540.578,538.931,0.0
53967.0,STARLINK-4634,PAYLOAD,2023-07-21 02:27:35,15.08826061,9.09e-05,53.2161,225.3767,67.9733,292.1355,6.6745e-05,7.74e-06,0.0,0 STARLINK-4634,1 53967U 22125D   23202.10248918  .00000774  00000-0  66745-4 0  9994,2 53967  53.2161 225.3767 0000909  67.9733 292.1355 15.08826061 44074,6917.923,95.438,540.417,539.159,0.0
53967.0,STARLINK-4634,PAYLOAD,2023-07-24 00:24:31,15.08854334,0.0001482,53.2131,212.2905,52.3632,307.7494,5.9894e-05,6.66e-06,0.0,0 STARLINK-4634,1 53967U 22125D   23205.01703120  .00000666  00000-0  59894-4 0  9995,2 53967  53.2131 212.2905 0001482  52.3632 307.7494 15.08854334 44445,6917.837,95.437,540.727,538.676,0.0
53967.0,STARLINK-4634,PAYLOAD,2023-07-25 11:23:00,15.08847879,8.35e-05,53.2154,205.7488,31.7983,328.3059,2.2805e-05,7.5e-07,0.0,0 STARLINK-4634,1 53967U 22125D   23206.47430832  .00000075  00000-0  22805-4 0  9999,2 53967  53.2154 205.7488 0000835  31.7983 328.3059 15.08847879 44660,6917.856,95.437,540.299,539.144,0.0
53967.0,STARLINK-4634,PAYLOAD,2023-07-26 09:38:24,15.08842479,0.0001172,53.2142,201.5879,28.4787,331.6269,0.00012636,1.724e-05,0.0,0 STARLINK-4634,1 53967U 22125D   23207.40167143  .00001724  00000-0  12636-3 0  9997,2 53967  53.2142 201.5879 0001172  28.4787 331.6269 15.08842479 44802,6917.873,95.437,540.549,538.927,0.0
